{
  "type": "FeatureCollection",
  "features": [
    {
      "type": "Feature",
      "properties": {
        "norad_id": 34972,
        "name": "COSMOS 2251 DEB",
        "group": "cosmos-2251-debris",
        "lat": 17.64412734297703,
        "lon": -145.4684796976309,
        "alt_km": 632.8223945320078,
        "timestamp": "2025-12-17T21:39:46.085151+00:00",
        "meta_object_name": "COSMOS 2251 DEB",
        "meta_object_id": "1993-036AFB",
        "meta_epoch": "2025-12-17T04:53:43.581696",
        "meta_mean_motion": 14.7295587,
        "meta_eccentricity": 0.00333157,
        "meta_inclination": 73.9877,
        "meta_ra_of_asc_node": 41.1365,
        "meta_arg_of_pericenter": 199.3746,
        "meta_mean_anomaly": 219.2483,
        "meta_ephemeris_type": 0,
        "meta_classification_type": "U",
        "meta_norad_cat_id": 34972,
        "meta_element_set_no": 999,
        "meta_rev_at_epoch": 87716,
        "meta_bstar": 0.00095788275,
        "meta_mean_motion_dot": 6.173e-05,
        "meta_mean_motion_ddot": 0,
        "tle_line1": "1 34972U 93036AFB 25351.20397664  .00006173  00000+0  95788-3 0  9995",
        "tle_line2": "2 34972  73.9877  41.1365 0033315 199.3746 219.2483 14.72955870877168"
      },
      "geometry": {
        "type": "Point",
        "coordinates": [
          -145.4684796976309,
          17.64412734297703
        ]
      }
    },
    {
      "type": "Feature",
      "properties": {
        "norad_id": 34976,
        "name": "COSMOS 2251 DEB",
        "group": "cosmos-2251-debris",
        "lat": -34.6506156704718,
        "lon": -75.25012392625612,
        "alt_km": 613.7905567301586,
        "timestamp": "2025-12-17T21:39:46.085161+00:00",
        "meta_object_name": "COSMOS 2251 DEB",
        "meta_object_id": "1993-036AFF",
        "meta_epoch": "2025-12-16T21:41:30.434208",
        "meta_mean_motion": 14.76659801,
        "meta_eccentricity": 0.00478076,
        "meta_inclination": 74.0571,
        "meta_ra_of_asc_node": 298.0987,
        "meta_arg_of_pericenter": 343.9713,
        "meta_mean_anomaly": 72.6765,
        "meta_ephemeris_type": 0,
        "meta_classification_type": "U",
        "meta_norad_cat_id": 34976,
        "meta_element_set_no": 999,
        "meta_rev_at_epoch": 88335,
        "meta_bstar": 0.0012885114,
        "meta_mean_motion_dot": 9.159e-05,
        "meta_mean_motion_ddot": 0,
        "tle_line1": "1 34976U 93036AFF 25350.90382447  .00009159  00000+0  12885-2 0  9991",
        "tle_line2": "2 34976  74.0571 298.0987 0047807 343.9713  72.6765 14.76659801883351"
      },
      "geometry": {
        "type": "Point",
        "coordinates": [
          -75.25012392625612,
          -34.6506156704718
        ]
      }
    },
    {
      "type": "Feature",
      "properties": {
        "norad_id": 34979,
        "name": "COSMOS 2251 DEB",
        "group": "cosmos-2251-debris",
        "lat": 60.240012470649795,
        "lon": -72.86282227491691,
        "alt_km": 625.0922142274148,
        "timestamp": "2025-12-17T21:39:46.085170+00:00",
        "meta_object_name": "COSMOS 2251 DEB",
        "meta_object_id": "1993-036AFJ",
        "meta_epoch": "2025-12-17T11:38:10.036896",
        "meta_mean_motion": 14.79440023,
        "meta_eccentricity": 0.00491471,
        "meta_inclination": 74.0408,
        "meta_ra_of_asc_node": 257.9266,
        "meta_arg_of_pericenter": 334.8913,
        "meta_mean_anomaly": 24.9873,
        "meta_ephemeris_type": 0,
        "meta_classification_type": "U",
        "meta_norad_cat_id": 34979,
        "meta_element_set_no": 999,
        "meta_rev_at_epoch": 88290,
        "meta_bstar": 0.0009532686,
        "meta_mean_motion_dot": 7.236e-05,
        "meta_mean_motion_ddot": 0,
        "tle_line1": "1 34979U 93036AFJ 25351.48483839  .00007236  00000+0  95327-3 0  9992",
        "tle_line2": "2 34979  74.0408 257.9266 0049147 334.8913  24.9873 14.79440023882904"
      },
      "geometry": {
        "type": "Point",
        "coordinates": [
          -72.86282227491691,
          60.240012470649795
        ]
      }
    },
    {
      "type": "Feature",
      "properties": {
        "norad_id": 34990,
        "name": "COSMOS 2251 DEB",
        "group": "cosmos-2251-debris",
        "lat": -19.70283258917207,
        "lon": 67.64607817522291,
        "alt_km": 758.1267683950746,
        "timestamp": "2025-12-17T21:39:46.085179+00:00",
        "meta_object_name": "COSMOS 2251 DEB",
        "meta_object_id": "1993-036AFN",
        "meta_epoch": "2025-12-15T10:28:28.781472",
        "meta_mean_motion": 14.42382837,
        "meta_eccentricity": 0.00165597,
        "meta_inclination": 74.0457,
        "meta_ra_of_asc_node": 246.3361,
        "meta_arg_of_pericenter": 308.9911,
        "meta_mean_anomaly": 50.977,
        "meta_ephemeris_type": 0,
        "meta_classification_type": "U",
        "meta_norad_cat_id": 34990,
        "meta_element_set_no": 999,
        "meta_rev_at_epoch": 87385,
        "meta_bstar": 0.00031884459,
        "meta_mean_motion_dot": 1.029e-05,
        "meta_mean_motion_ddot": 0,
        "tle_line1": "1 34990U 93036AFN 25349.43644423  .00001029  00000+0  31884-3 0  9997",
        "tle_line2": "2 34990  74.0457 246.3361 0016559 308.9911  50.9770 14.42382837873857"
      },
      "geometry": {
        "type": "Point",
        "coordinates": [
          67.64607817522291,
          -19.70283258917207
        ]
      }
    },
    {
      "type": "Feature",
      "properties": {
        "norad_id": 34997,
        "name": "COSMOS 2251 DEB",
        "group": "cosmos-2251-debris",
        "lat": 61.8102058000851,
        "lon": -25.865993761165992,
        "alt_km": 794.2551980345097,
        "timestamp": "2025-12-17T21:39:46.085188+00:00",
        "meta_object_name": "COSMOS 2251 DEB",
        "meta_object_id": "1993-036AFV",
        "meta_epoch": "2025-12-14T03:40:01.084512",
        "meta_mean_motion": 14.45585468,
        "meta_eccentricity": 0.00977103,
        "meta_inclination": 73.8806,
        "meta_ra_of_asc_node": 308.5363,
        "meta_arg_of_pericenter": 283.3348,
        "meta_mean_anomaly": 75.6929,
        "meta_ephemeris_type": 0,
        "meta_classification_type": "U",
        "meta_norad_cat_id": 34997,
        "meta_element_set_no": 999,
        "meta_rev_at_epoch": 70767,
        "meta_bstar": 0.0019000145,
        "meta_mean_motion_dot": 7.095e-05,
        "meta_mean_motion_ddot": 0,
        "tle_line1": "1 34997U 93036AFV 25348.15279033  .00007095  00000+0  19000-2 0  9997",
        "tle_line2": "2 34997  73.8806 308.5363 0097710 283.3348  75.6929 14.45585468707674"
      },
      "geometry": {
        "type": "Point",
        "coordinates": [
          -25.865993761165992,
          61.8102058000851
        ]
      }
    },
    {
      "type": "Feature",
      "properties": {
        "norad_id": 34998,
        "name": "COSMOS 2251 DEB",
        "group": "cosmos-2251-debris",
        "lat": 13.281834573026147,
        "lon": 154.16696624462608,
        "alt_km": 725.7745427522459,
        "timestamp": "2025-12-17T21:39:46.085197+00:00",
        "meta_object_name": "COSMOS 2251 DEB",
        "meta_object_id": "1993-036AFW",
        "meta_epoch": "2025-12-16T10:57:12.458016",
        "meta_mean_motion": 14.49297332,
        "meta_eccentricity": 0.00212597,
        "meta_inclination": 74.0093,
        "meta_ra_of_asc_node": 153.0016,
        "meta_arg_of_pericenter": 297.9373,
        "meta_mean_anomaly": 93.1906,
        "meta_ephemeris_type": 0,
        "meta_classification_type": "U",
        "meta_norad_cat_id": 34998,
        "meta_element_set_no": 999,
        "meta_rev_at_epoch": 87474,
        "meta_bstar": 0.00045816077,
        "meta_mean_motion_dot": 1.726e-05,
        "meta_mean_motion_ddot": 0,
        "tle_line1": "1 34998U 93036AFW 25350.45639419  .00001726  00000+0  45816-3 0  9992",
        "tle_line2": "2 34998  74.0093 153.0016 0021259 297.9373  93.1906 14.49297332874745"
      },
      "geometry": {
        "type": "Point",
        "coordinates": [
          154.16696624462608,
          13.281834573026147
        ]
      }
    },
    {
      "type": "Feature",
      "properties": {
        "norad_id": 35012,
        "name": "COSMOS 2251 DEB",
        "group": "cosmos-2251-debris",
        "lat": -72.05966843969169,
        "lon": 39.84903842763698,
        "alt_km": 700.6841311363969,
        "timestamp": "2025-12-17T21:39:46.085205+00:00",
        "meta_object_name": "COSMOS 2251 DEB",
        "meta_object_id": "1993-036AFZ",
        "meta_epoch": "2025-12-17T08:45:06.225696",
        "meta_mean_motion": 14.45554969,
        "meta_eccentricity": 0.00815478,
        "meta_inclination": 74.0209,
        "meta_ra_of_asc_node": 103.105,
        "meta_arg_of_pericenter": 242.2771,
        "meta_mean_anomaly": 117.0098,
        "meta_ephemeris_type": 0,
        "meta_classification_type": "U",
        "meta_norad_cat_id": 35012,
        "meta_element_set_no": 999,
        "meta_rev_at_epoch": 87628,
        "meta_bstar": 0.00015311641,
        "meta_mean_motion_dot": 5.34e-06,
        "meta_mean_motion_ddot": 0,
        "tle_line1": "1 35012U 93036AFZ 25351.36465539  .00000534  00000+0  15312-3 0  9995",
        "tle_line2": "2 35012  74.0209 103.1050 0081547 242.2771 117.0098 14.45554969876284"
      },
      "geometry": {
        "type": "Point",
        "coordinates": [
          39.84903842763698,
          -72.05966843969169
        ]
      }
    }
  ]
}